{
  "type": "FeatureCollection",
  "features": [
    {
      "type": "Feature",
      "properties": {
        "norad_id": 27954,
        "name": "GALAXY 13 (HORIZONS-1)",
        "group": "intelsat",
        "lat": 0.9238994781812672,
        "lon": 160.56403815527392,
        "alt_km": 35788.629512277534,
        "timestamp": "2025-12-19T14:48:35.911935+00:00",
        "meta_object_name": "GALAXY 13 (HORIZONS-1)",
        "meta_object_id": "2003-044A",
        "meta_epoch": "2025-12-19T05:25:38.491680",
        "meta_mean_motion": 1.0026926,
        "meta_eccentricity": 0.00024327,
        "meta_inclination": 0.9531,
        "meta_ra_of_asc_node": 86.3872,
        "meta_arg_of_pericenter": 175.357,
        "meta_mean_anomaly": 117.7371,
        "meta_ephemeris_type": 0,
        "meta_classification_type": "U",
        "meta_norad_cat_id": 27954,
        "meta_element_set_no": 999,
        "meta_rev_at_epoch": 4476,
        "meta_bstar": 0,
        "meta_mean_motion_dot": 1.57e-06,
        "meta_mean_motion_ddot": 0,
        "tle_line1": "1 27954U 03044A   25353.22613995  .00000157  00000+0  00000+0 0  9994",
        "tle_line2": "2 27954   0.9531  86.3872 0002432 175.3570 117.7371  1.00269260 44764"
      },
      "geometry": {
        "type": "Point",
        "coordinates": [
          160.56403815527392,
          0.9238994781812672
        ]
      }
    },
    {
      "type": "Feature",
      "properties": {
        "norad_id": 28358,
        "name": "INTELSAT 10-02",
        "group": "intelsat",
        "lat": -0.027903355375606596,
        "lon": -50.352541327182166,
        "alt_km": 35782.010476560514,
        "timestamp": "2025-12-19T14:48:35.911948+00:00",
        "meta_object_name": "INTELSAT 10-02",
        "meta_object_id": "2004-022A",
        "meta_epoch": "2025-12-18T20:08:22.788096",
        "meta_mean_motion": 1.00272833,
        "meta_eccentricity": 8.965e-05,
        "meta_inclination": 0.0192,
        "meta_ra_of_asc_node": 66.3622,
        "meta_arg_of_pericenter": 235.9772,
        "meta_mean_anomaly": 86.4926,
        "meta_ephemeris_type": 0,
        "meta_classification_type": "U",
        "meta_norad_cat_id": 28358,
        "meta_element_set_no": 999,
        "meta_rev_at_epoch": 7874,
        "meta_bstar": 0,
        "meta_mean_motion_dot": 1.5e-07,
        "meta_mean_motion_ddot": 0,
        "tle_line1": "1 28358U 04022A   25352.83915264  .00000015  00000+0  00000+0 0  9993",
        "tle_line2": "2 28358   0.0192  66.3622 0000896 235.9772  86.4926  1.00272833 78740"
      },
      "geometry": {
        "type": "Point",
        "coordinates": [
          -50.352541327182166,
          -0.027903355375606596
        ]
      }
    },
    {
      "type": "Feature",
      "properties": {
        "norad_id": 28626,
        "name": "XM-3 (RHYTHM)",
        "group": "intelsat",
        "lat": -0.1267682760831059,
        "lon": 32.23611107422904,
        "alt_km": 36154.01872999092,
        "timestamp": "2025-12-19T14:48:35.911960+00:00",
        "meta_object_name": "XM-3 (RHYTHM)",
        "meta_object_id": "2005-008A",
        "meta_epoch": "2025-12-19T03:23:23.518752",
        "meta_mean_motion": 0.98950167,
        "meta_eccentricity": 0.00018735,
        "meta_inclination": 0.1906,
        "meta_ra_of_asc_node": 81.929,
        "meta_arg_of_pericenter": 278.2541,
        "meta_mean_anomaly": 222.5456,
        "meta_ephemeris_type": 0,
        "meta_classification_type": "U",
        "meta_norad_cat_id": 28626,
        "meta_element_set_no": 999,
        "meta_rev_at_epoch": 4081,
        "meta_bstar": 0,
        "meta_mean_motion_dot": 4.8e-07,
        "meta_mean_motion_ddot": 0,
        "tle_line1": "1 28626U 05008A   25353.14124443  .00000048  00000+0  00000+0 0  9998",
        "tle_line2": "2 28626   0.1906  81.9290 0001873 278.2541 222.5456  0.98950167 40813"
      },
      "geometry": {
        "type": "Point",
        "coordinates": [
          32.23611107422904,
          -0.1267682760831059
        ]
      }
    },
    {
      "type": "Feature",
      "properties": {
        "norad_id": 28659,
        "name": "DIRECTV 8",
        "group": "intelsat",
        "lat": -0.021843336240712025,
        "lon": -168.4693504104149,
        "alt_km": 35785.405175415224,
        "timestamp": "2025-12-19T14:48:35.911983+00:00",
        "meta_object_name": "DIRECTV 8",
        "meta_object_id": "2005-019A",
        "meta_epoch": "2025-12-19T05:51:01.874880",
        "meta_mean_motion": 1.00271096,
        "meta_eccentricity": 0.00028222,
        "meta_inclination": 0.0161,
        "meta_ra_of_asc_node": 332.5718,
        "meta_arg_of_pericenter": 304.9799,
        "meta_mean_anomaly": 139.2632,
        "meta_ephemeris_type": 0,
        "meta_classification_type": "U",
        "meta_norad_cat_id": 28659,
        "meta_element_set_no": 999,
        "meta_rev_at_epoch": 7526,
        "meta_bstar": 0,
        "meta_mean_motion_dot": 2.6e-07,
        "meta_mean_motion_ddot": 0,
        "tle_line1": "1 28659U 05019A   25353.24377170  .00000026  00000+0  00000+0 0  9990",
        "tle_line2": "2 28659   0.0161 332.5718 0002822 304.9799 139.2632  1.00271096 75266"
      },
      "geometry": {
        "type": "Point",
        "coordinates": [
          -168.4693504104149,
          -0.021843336240712025
        ]
      }
    },
    {
      "type": "Feature",
      "properties": {
        "norad_id": 28702,
        "name": "GALAXY 28 (G-28)",
        "group": "intelsat",
        "lat": 1.7777110676169299,
        "lon": -138.07239242865796,
        "alt_km": 35778.49321394363,
        "timestamp": "2025-12-19T14:48:35.912008+00:00",
        "meta_object_name": "GALAXY 28 (G-28)",
        "meta_object_id": "2005-022A",
        "meta_epoch": "2025-12-19T06:09:01.433376",
        "meta_mean_motion": 1.00271002,
        "meta_eccentricity": 0.0002923,
        "meta_inclination": 2.8362,
        "meta_ra_of_asc_node": 81.2076,
        "meta_arg_of_pericenter": 192.9294,
        "meta_mean_anomaly": 177.5399,
        "meta_ephemeris_type": 0,
        "meta_classification_type": "U",
        "meta_norad_cat_id": 28702,
        "meta_element_set_no": 999,
        "meta_rev_at_epoch": 5017,
        "meta_bstar": 0,
        "meta_mean_motion_dot": -1.65e-06,
        "meta_mean_motion_ddot": 0,
        "tle_line1": "1 28702U 05022A   25353.25626659 -.00000165  00000+0  00000+0 0  9998",
        "tle_line2": "2 28702   2.8362  81.2076 0002923 192.9294 177.5399  1.00271002 50175"
      },
      "geometry": {
        "type": "Point",
        "coordinates": [
          -138.07239242865796,
          1.7777110676169299
        ]
      }
    },
    {
      "type": "Feature",
      "properties": {
        "norad_id": 29236,
        "name": "GALAXY 16 (G-16)",
        "group": "intelsat",
        "lat": -0.006016681538260156,
        "lon": -148.42369608832385,
        "alt_km": 35779.96893684477,
        "timestamp": "2025-12-19T14:48:35.912023+00:00",
        "meta_object_name": "GALAXY 16 (G-16)",
        "meta_object_id": "2006-023A",
        "meta_epoch": "2025-12-19T06:00:52.934688",
        "meta_mean_motion": 1.00271418,
        "meta_eccentricity": 0.00024679,
        "meta_inclination": 0.0158,
        "meta_ra_of_asc_node": 245.6603,
        "meta_arg_of_pericenter": 19.3643,
        "meta_mean_anomaly": 174.2954,
        "meta_ephemeris_type": 0,
        "meta_classification_type": "U",
        "meta_norad_cat_id": 29236,
        "meta_element_set_no": 999,
        "meta_rev_at_epoch": 7116,
        "meta_bstar": 0,
        "meta_mean_motion_dot": -1.02e-06,
        "meta_mean_motion_ddot": 0,
        "tle_line1": "1 29236U 06023A   25353.25061267 -.00000102  00000+0  00000+0 0  9992",
        "tle_line2": "2 29236   0.0158 245.6603 0002467  19.3643 174.2954  1.00271418 71160"
      },
      "geometry": {
        "type": "Point",
        "coordinates": [
          -148.42369608832385,
          -0.006016681538260156
        ]
      }
    },
    {
      "type": "Feature",
      "properties": {
        "norad_id": 29494,
        "name": "DIRECTV 9S",
        "group": "intelsat",
        "lat": 1.5632252233159054,
        "lon": -150.61846431964776,
        "alt_km": 35780.729429593084,
        "timestamp": "2025-12-19T14:48:35.912035+00:00",
        "meta_object_name": "DIRECTV 9S",
        "meta_object_id": "2006-043A",
        "meta_epoch": "2025-12-19T05:59:53.441376",
        "meta_mean_motion": 1.00271776,
        "meta_eccentricity": 0.00028139,
        "meta_inclination": 1.9561,
        "meta_ra_of_asc_node": 83.1445,
        "meta_arg_of_pericenter": 190.6661,
        "meta_mean_anomaly": 163.0522,
        "meta_ephemeris_type": 0,
        "meta_classification_type": "U",
        "meta_norad_cat_id": 29494,
        "meta_element_set_no": 999,
        "meta_rev_at_epoch": 4957,
        "meta_bstar": 0,
        "meta_mean_motion_dot": -9e-07,
        "meta_mean_motion_ddot": 0,
        "tle_line1": "1 29494U 06043A   25353.24992409 -.00000090  00000+0  00000+0 0  9996",
        "tle_line2": "2 29494   1.9561  83.1445 0002813 190.6661 163.0522  1.00271776 49575"
      },
      "geometry": {
        "type": "Point",
        "coordinates": [
          -150.61846431964776,
          1.5632252233159054
        ]
      }
    }
  ]
}